{
  "norad_id": 56796,
  "name": "STARLINK-6049",
  "history": [
    {
      "epoch": "2026-03-28T19:44:24.259200Z",
      "apogee_km": 573.9696120552671,
      "perigee_km": 570.1657650292273,
      "latitude_deg": 5.479960900450565e-05,
      "longitude_deg": 173.9773079927571,
      "height_km": 574.6440248415554,
      "semi_major_axis_km": 6950.204688542247,
      "eccentricity": 0.00027365,
      "inclination_deg": 69.9977,
      "raan_deg": 296.3158,
      "arg_perigee_deg": 265.4975,
      "mean_anomaly_deg": 94.5872,
      "mean_motion_rev_day": 14.98326185
    },
    {
      "epoch": "2026-03-29T00:32:48.039072Z",
      "apogee_km": 573.8510717360878,
      "perigee_km": 570.2494846885174,
      "latitude_deg": -2.729013125301364e-05,
      "longitude_deg": 101.17519514204982,
      "height_km": 574.5398127257826,
      "semi_major_axis_km": 6950.187278212302,
      "eccentricity": 0.0002591,
      "inclination_deg": 69.9978,
      "raan_deg": 295.8102,
      "arg_perigee_deg": 268.0066,
      "mean_anomaly_deg": 92.0796,
      "mean_motion_rev_day": 14.98331815
    }
  ]
}